NORAD_CAT_ID,OBJECT_NAME,OBJECT_TYPE,EPOCH,MEAN_MOTION,ECCENTRICITY,INCLINATION,RA_OF_ASC_NODE,ARG_OF_PERICENTER,MEAN_ANOMALY,BSTAR,MEAN_MOTION_DOT,MEAN_MOTION_DDOT,TLE_LINE0,TLE_LINE1,TLE_LINE2,SEMIMAJOR_AXIS,PERIOD,APOGEE,PERIGEE,DECAYED
55643.0,STARLINK-5483,PAYLOAD,2024-08-03 06:05:02,14.98332351,0.0003289,69.9987,215.6849,269.1067,90.9715,4.7718e-05,4.76e-06,0.0,0 STARLINK-5483,1 55643U 23021R   24216.25350251  .00000476  00000-0  47718-4 0  9997,2 55643  69.9987 215.6849 0003289 269.1067  90.9715 14.98332351 81099,6950.186,96.107,574.337,569.765,0.0
55643.0,STARLINK-5483,PAYLOAD,2024-08-03 09:17:18,14.98332237,0.0003289,69.9988,215.3483,269.0196,91.0586,4.5051e-05,4.45e-06,0.0,0 STARLINK-5483,1 55643U 23021R   24216.38702247  .00000445  00000-0  45051-4 0  9991,2 55643  69.9988 215.3483 0003289 269.0196  91.0586 14.98332237 81410,6950.186,96.107,574.337,569.765,0.0
55643.0,STARLINK-5483,PAYLOAD,2024-08-03 17:17:59,14.98332141,0.0003297,69.9988,214.5066,269.1828,90.8954,3.7045e-05,3.49e-06,0.0,0 STARLINK-5483,1 55643U 23021R   24216.72082221  .00000349  00000-0  37045-4 0  9999,2 55643  69.9988 214.5066 0003297 269.1828  90.8954 14.98332141 81465,6950.186,96.107,574.343,569.76,0.0
55643.0,STARLINK-5483,PAYLOAD,2024-08-04 09:19:19,14.98331852,0.0003271,69.9989,212.8235,268.9812,91.0972,4.6905e-05,4.67e-06,0.0,0 STARLINK-5483,1 55643U 23021R   24217.38842181  .00000467  00000-0  46905-4 0  9997,2 55643  69.9989 212.8235 0003271 268.9812  91.0972 14.98331852 81266,6950.187,96.107,574.326,569.779,0.0
55643.0,STARLINK-5483,PAYLOAD,2024-08-04 17:20:00,14.98330308,0.0003293,69.9988,211.9816,269.3184,90.7598,9.6879e-06,2.3e-07,0.0,0 STARLINK-5483,1 55643U 23021R   24217.72222334  .00000023  00000-0  96879-5 0  9991,2 55643  69.9988 211.9816 0003293 269.3184  90.7598 14.98330308 81615,6950.192,96.107,574.346,569.768,0.0
55643.0,STARLINK-5483,PAYLOAD,2024-08-05 17:22:01,14.98328117,0.0003223,69.9989,209.4565,269.5648,90.5141,-3.841e-05,-5.51e-06,0.0,0 STARLINK-5483,1 55643U 23021R   24218.72362501 -.00000551  00000-0 -38410-4 0  9997,2 55643  69.9989 209.4565 0003223 269.5648  90.5141 14.98328117 81469,6950.199,96.107,574.304,569.824,0.0
55643.0,STARLINK-5483,PAYLOAD,2024-08-06 06:11:05,14.98326421,0.0003249,69.9988,208.1104,269.9129,90.1657,-3.8965e-05,-5.58e-06,0.0,0 STARLINK-5483,1 55643U 23021R   24219.25770700 -.00000558  00000-0 -38965-4 0  9992,2 55643  69.9988 208.1104 0003249 269.9129  90.1657 14.98326421 81845,6950.204,96.107,574.327,569.811,0.0
55643.0,STARLINK-5483,PAYLOAD,2024-08-07 03:00:50,14.9833082,0.0003238,69.999,205.9222,270.3683,89.7105,3.6389e-05,3.41e-06,0.0,0 STARLINK-5483,1 55643U 23021R   24220.12558315  .00000341  00000-0  36389-4 0  9992,2 55643  69.9990 205.9222 0003238 270.3683  89.7105 14.98330820 81674,6950.19,96.107,574.306,569.805,0.0
55643.0,STARLINK-5483,PAYLOAD,2024-08-07 07:49:14,14.98334048,0.0003244,69.999,205.4173,270.5727,89.5061,4.6776e-05,4.65e-06,0.0,0 STARLINK-5483,1 55643U 23021R   24220.32586061  .00000465  00000-0  46776-4 0  9991,2 55643  69.9990 205.4173 0003244 270.5727  89.5061 14.98334048 82005,6950.18,96.107,574.3,569.791,0.0
55643.0,STARLINK-5483,PAYLOAD,2024-08-08 09:27:23,14.9833354,0.0003122,69.9994,202.7248,269.3959,90.6842,0.00012524,1.402e-05,0.0,0 STARLINK-5483,1 55643U 23021R   24221.39401819  .00001402  00000-0  12524-3 0  9991,2 55643  69.9994 202.7248 0003122 269.3959  90.6842 14.98333540 82163,6950.182,96.107,574.217,569.877,0.0
55643.0,STARLINK-5483,PAYLOAD,2024-08-08 22:16:27,14.9833242,0.0002846,70.0001,201.3784,262.2438,97.8398,1.316e-05,6.4e-07,0.0,0 STARLINK-5483,1 55643U 23021R   24221.92810098  .00000064  00000-0  13160-4 0  9994,2 55643  70.0001 201.3784 0002846 262.2438  97.8398 14.98332420 81947,6950.185,96.107,574.028,570.072,0.0
55643.0,STARLINK-5483,PAYLOAD,2024-08-09 07:53:16,14.98332743,0.0002845,70.0,200.3685,262.4509,97.6327,1.4753e-05,8.3e-07,0.0,0 STARLINK-5483,1 55643U 23021R   24222.32866020  .00000083  00000-0  14753-4 0  9995,2 55643  70.0000 200.3685 0002845 262.4509  97.6327 14.98332743 82304,6950.184,96.107,574.027,570.072,0.0
55643.0,STARLINK-5483,PAYLOAD,2024-08-09 15:53:56,14.98331562,0.0002861,70.0,199.5267,268.5334,91.5497,-1.5416e-05,-2.77e-06,0.0,0 STARLINK-5483,1 55643U 23021R   24222.66246164 -.00000277  00000-0 -15416-4 0  9997,2 55643  70.0000 199.5267 0002861 268.5334  91.5497 14.98331562 82354,6950.188,96.107,574.042,570.065,0.0
55643.0,STARLINK-5483,PAYLOAD,2024-08-10 03:06:53,14.98324643,0.0002812,70.0,198.349,267.8598,92.2239,-7.7599e-05,-1.019e-05,0.0,0 STARLINK-5483,1 55643U 23021R   24223.12978774 -.00001019  00000-0 -77599-4 0  9993,2 55643  70.0000 198.3490 0002812 267.8598  92.2239 14.98324643 82128,6950.209,96.107,574.029,570.12,0.0
55643.0,STARLINK-5483,PAYLOAD,2024-08-10 07:55:18,14.98298351,0.0002614,70.0002,197.8445,265.6726,94.4134,0.000481,5.646e-05,0.0,0 STARLINK-5483,1 55643U 23021R   24223.33007040  .00005646  00000-0  48100-3 0  9998,2 55643  70.0002 197.8445 0002614 265.6726  94.4134 14.98298351 82150,6950.291,96.109,573.973,570.339,0.0
55643.0,STARLINK-5483,PAYLOAD,2024-08-11 03:08:53,14.98331658,0.0002795,69.9999,195.8237,267.126,92.9579,4.4173e-05,4.34e-06,0.0,0 STARLINK-5483,1 55643U 23021R   24224.13117998  .00000434  00000-0  44173-4 0  9998,2 55643  69.9999 195.8237 0002795 267.1260  92.9579 14.98331658 82276,6950.188,96.107,573.995,570.11,0.0
55643.0,STARLINK-5483,PAYLOAD,2024-08-11 07:57:17,14.98338616,0.000277,70.0001,195.3192,262.6422,97.4423,0.00012164,1.359e-05,0.0,0 STARLINK-5483,1 55643U 23021R   24224.33145283  .00001359  00000-0  12164-3 0  9999,2 55643  70.0001 195.3192 0002770 262.6422  97.4423 14.98338616 82304,6950.166,96.106,573.956,570.106,0.0
55643.0,STARLINK-5483,PAYLOAD,2024-08-11 20:46:22,14.98328535,0.0002799,70.0011,193.9701,265.7955,94.2884,0.00012304,1.375e-05,0.0,0 STARLINK-5483,1 55643U 23021R   24224.86553797  .00001375  00000-0  12304-3 0  9994,2 55643  70.0011 193.9701 0002799 265.7955  94.2884 14.98328535 82384,6950.197,96.107,574.008,570.117,0.0
55643.0,STARLINK-5483,PAYLOAD,2024-08-11 22:22:30,14.98329658,0.000274,70.0006,193.8016,265.987,94.0976,0.00010942,1.213e-05,0.0,0 STARLINK-5483,1 55643U 23021R   24224.93229779  .00001213  00000-0  10942-3 0  9999,2 55643  70.0006 193.8016 0002740 265.9870  94.0976 14.98329658 82691,6950.194,96.107,573.963,570.155,0.0
55643.0,STARLINK-5483,PAYLOAD,2024-08-12 07:59:18,14.98335904,0.0002616,70.0004,192.7962,260.8279,99.2584,0.00012485,1.397e-05,0.0,0 STARLINK-5483,1 55643U 23021R   24225.33285286  .00001397  00000-0  12485-3 0  9996,2 55643  70.0004 192.7962 0002616 260.8279  99.2584 14.98335904 82453,6950.175,96.107,573.858,570.221,0.0
55643.0,STARLINK-5483,PAYLOAD,2024-08-12 20:48:22,14.98347581,0.0002699,70.0002,191.4489,263.1414,96.9438,7.5064e-05,8.03e-06,0.0,0 STARLINK-5483,1 55643U 23021R   24225.86692438  .00000803  00000-0  75064-4 0  9999,2 55643  70.0002 191.4489 0002699 263.1414  96.9438 14.98347581 82534,6950.139,96.106,573.879,570.128,0.0
55643.0,STARLINK-5483,PAYLOAD,2024-08-12 22:24:30,14.98346263,0.0002732,70.0001,191.2798,264.8694,95.2154,6.3897e-05,6.7e-06,0.0,0 STARLINK-5483,1 55643U 23021R   24225.93368476  .00000670  00000-0  63897-4 0  9992,2 55643  70.0001 191.2798 0002732 264.8694  95.2154 14.98346263 82847,6950.143,96.106,573.906,570.109,0.0
55643.0,STARLINK-5483,PAYLOAD,2024-08-13 04:49:06,14.98297279,0.0002767,70.0001,190.6071,260.9129,99.1717,-0.00047025,-5.695e-05,0.0,0 STARLINK-5483,1 55643U 23021R   24226.20077031 -.00005695  00000-0 -47025-3 0  9995,2 55643  70.0001 190.6071 0002767 260.9129  99.1717 14.98297279 82583,6950.294,96.109,574.082,570.236,0.0
55643.0,STARLINK-5483,PAYLOAD,2024-08-13 08:01:22,14.9829781,0.0002892,69.9999,190.269,265.7381,94.3447,-0.00045375,-5.498e-05,0.0,0 STARLINK-5483,1 55643U 23021R   24226.33429187 -.00005498  00000-0 -45375-3 0  9999,2 55643  69.9999 190.2690 0002892 265.7381  94.3447 14.98297810 82905,6950.292,96.109,574.167,570.147,0.0
55643.0,STARLINK-5483,PAYLOAD,2024-08-13 22:26:36,14.98295372,0.0003027,69.9992,188.7535,267.4503,92.631,-0.0002606,-3.198e-05,0.0,0 STARLINK-5483,1 55643U 23021R   24226.93513924 -.00003198  00000-0 -26060-3 0  9993,2 55643  69.9992 188.7535 0003027 267.4503  92.6310 14.98295372 82994,6950.3,96.109,574.269,570.061,0.0
55643.0,STARLINK-5483,PAYLOAD,2024-08-14 04:51:06,14.98326365,0.0003071,69.999,188.079,274.4788,85.602,4.0477e-05,3.9e-06,0.0,0 STARLINK-5483,1 55643U 23021R   24227.20215750  .00000390  00000-0  40477-4 0  9998,2 55643  69.9990 188.0790 0003071 274.4788  85.6020 14.98326365 82739,6950.204,96.107,574.204,569.935,0.0
55643.0,STARLINK-5483,PAYLOAD,2024-08-14 08:03:22,14.98329536,0.0002708,70.0001,187.7461,256.3111,103.7747,4.4196e-05,4.34e-06,0.0,0 STARLINK-5483,1 55643U 23021R   24227.33567366  .00000434  00000-0  44196-4 0  9996,2 55643  70.0001 187.7461 0002708 256.3111 103.7747 14.98329536 82754,6950.194,96.107,573.941,570.177,0.0
55643.0,STARLINK-5483,PAYLOAD,2024-08-14 14:27:55,14.98333209,0.0002623,70.0008,187.0681,275.8185,84.2675,-0.00028795,-3.527e-05,0.0,0 STARLINK-5483,1 55643U 23021R   24227.60272141 -.00003527  00000-0 -28795-3 0  9994,2 55643  70.0008 187.0681 0002623 275.8185  84.2675 14.98333209 83094,6950.183,96.107,573.871,570.225,0.0
55643.0,STARLINK-5483,PAYLOAD,2024-08-14 22:28:35,14.98331578,0.0003129,69.9986,186.2254,273.9237,86.1564,-0.00015837,-1.982e-05,0.0,0 STARLINK-5483,1 55643U 23021R   24227.93652114 -.00001982  00000-0 -15837-3 0  9998,2 55643  69.9986 186.2254 0003129 273.9237  86.1564 14.98331578 83143,6950.188,96.107,574.228,569.878,0.0
55643.0,STARLINK-5483,PAYLOAD,2024-08-15 04:53:08,14.98319442,0.0003221,69.9979,185.5542,272.7451,87.3339,-0.00012252,-1.554e-05,0.0,0 STARLINK-5483,1 55643U 23021R   24228.20356943 -.00001554  00000-0 -12252-3 0  9993,2 55643  69.9979 185.5542 0003221 272.7451  87.3339 14.98319442 82884,6950.226,96.108,574.329,569.852,0.0
